{
    "type": "FeatureCollection",
    "name": "extra_carparks",
    "crs": {
        "type": "name",
        "properties": {
            "name": "urn:ogc:def:crs:OGC:1.3:CRS84"
        }
    },
    "features": [
        {
            "type": "Feature",
            "id": 102,
            "properties": {
                "OBJECTID": 102,
                "Name": "51 Cliff Rd Parking"
            },
            "geometry": {
                "type": "MultiPolygon",
                "coordinates": [
                    [
                        [
                            [
                                176.169370327540747,
                                -37.676549087551528
                            ],
                            [
                                176.169452012687145,
                                -37.676802174677107
                            ],
                            [
                                176.169618371460956,
                                -37.676771425820071
                            ],
                            [
                                176.169709022050284,
                                -37.677022935327813
                            ],
                            [
                                176.170114459301374,
                                -37.676996917142397
                            ],
                            [
                                176.170092543774302,
                                -37.676840807838403
                            ],
                            [
                                176.169921204198829,
                                -37.676451321577161
                            ],
                            [
                                176.169370327540747,
                                -37.676549087551528
                            ]
                        ]
                    ]
                ]
            }
        },
        {
            "type": "Feature",
            "id": 103,
            "properties": {
                "OBJECTID": 103,
                "Name": "Elizabeth Street Car Park"
            },
            "geometry": {
                "type": "MultiPolygon",
                "coordinates": [
                    [
                        [
                            [
                                176.167868117774901,
                                -37.687866993538236
                            ],
                            [
                                176.167785436468137,
                                -37.688164187498764
                            ],
                            [
                                176.16810620009187,
                                -37.688219369270151
                            ],
                            [
                                176.16820880460503,
                                -37.687863051965785
                            ],
                            [
                                176.167883060179662,
                                -37.687811811504659
                            ],
                            [
                                176.167868117774901,
                                -37.687866993538236
                            ]
                        ]
                    ]
                ]
            }
        },
        {
            "type": "Feature",
            "id": 104,
            "properties": {
                "OBJECTID": 104,
                "Name": "99 Spring St Central KarPark"
            },
            "geometry": {
                "type": "MultiPolygon",
                "coordinates": [
                    [
                        [
                            [
                                176.166536749504417,
                                -37.684102696409532
                            ],
                            [
                                176.16655667271084,
                                -37.68439359864297
                            ],
                            [
                                176.166809697432683,
                                -37.684379408316588
                            ],
                            [
                                176.166785789584935,
                                -37.684094812864288
                            ],
                            [
                                176.166536749504417,
                                -37.684102696409532
                            ]
                        ]
                    ]
                ]
            }
        },
        {
            "type": "Feature",
            "id": 105,
            "properties": {
                "OBJECTID": 105,
                "Name": "21 Durham St - Leased"
            },
            "geometry": {
                "type": "MultiPolygon",
                "coordinates": [
                    [
                        [
                            [
                                176.166756103902003,
                                -37.682512409592597
                            ],
                            [
                                176.167076110206125,
                                -37.682501897068875
                            ],
                            [
                                176.167129243328304,
                                -37.682937687711821
                            ],
                            [
                                176.166789915888899,
                                -37.682959668312414
                            ],
                            [
                                176.166740405479572,
                                -37.682817272132247
                            ],
                            [
                                176.166756103902003,
                                -37.682512409592597
                            ]
                        ]
                    ]
                ]
            }
        },
        {
            "type": "Feature",
            "id": 106,
            "properties": {
                "OBJECTID": 106,
                "Name": "82 Devonport Rd - leased"
            },
            "geometry": {
                "type": "MultiPolygon",
                "coordinates": [
                    [
                        [
                            [
                                176.16980701603029,
                                -37.686265695519168
                            ],
                            [
                                176.169758650213367,
                                -37.686516721158711
                            ],
                            [
                                176.170010529337844,
                                -37.686541078056727
                            ],
                            [
                                176.170033770054999,
                                -37.686436691294595
                            ],
                            [
                                176.169975982325781,
                                -37.686427246770769
                            ],
                            [
                                176.170016810612736,
                                -37.686289555418469
                            ],
                            [
                                176.16980701603029,
                                -37.686265695519168
                            ]
                        ]
                    ]
                ]
            }
        },
        {
            "type": "Feature",
            "id": 101,
            "properties": {
                "OBJECTID": 101,
                "Name": "ANZ Building Parking"
            },
            "geometry": {
                "type": "MultiPolygon",
                "coordinates": [
                    [
                        [
                            [
                                176.163859111230266,
                                -37.687134769372513
                            ],
                            [
                                176.164824753118296,
                                -37.687263544824816
                            ],
                            [
                                176.164791623124216,
                                -37.687569674792911
                            ],
                            [
                                176.164341444968471,
                                -37.68755579487209
                            ],
                            [
                                176.163745105073957,
                                -37.687436273224129
                            ],
                            [
                                176.163859111230266,
                                -37.687134769372513
                            ]
                        ]
                    ]
                ]
            }
        }
    ]
}